{"type": "FeatureCollection", "features": [ {"type": "Feature", "properties": {"norad_id": 66573, "name": "STARLINK-35650", "group": "last-30-days", "lat": -14.41280496954999, "lon": 58.554148640403334, "alt_km": 414.8210117013559, "timestamp": "2025-12-20T16:47:35.021651+00:00", "meta": {"OBJECT_NAME": "STARLINK-35650", "OBJECT_ID": "2025-268S", "EPOCH": "2025-12-19T14:36:55.904832", "MEAN_MOTION": 15.50859773, "ECCENTRICITY": 0.0003722, "INCLINATION": 43.0011, "RA_OF_ASC_NODE": 80.9506, "ARG_OF_PERICENTER": 102.75, "MEAN_ANOMALY": 257.3776, "EPHEMERIS_TYPE": 0, "CLASSIFICATION_TYPE": "U", "NORAD_CAT_ID": 66573, "ELEMENT_SET_NO": 999, "REV_AT_EPOCH": 569, "BSTAR": 0.0063018, "MEAN_MOTION_DOT": 0.00392409, "MEAN_MOTION_DDOT": 0}, "tle": {"line1": "1 66573U 25268S   25353.60898038  .00392409  00000+0  63018-2 0  9996", "line2": "2 66573  43.0011  80.9506 0003722 102.7500 257.3776 15.50859773  5692"}}, "geometry": {"type": "Point", "coordinates": [58.554148640403334, -14.41280496954999]}}, {"type": "Feature", "properties": {"norad_id": 66574, "name": "STARLINK-35812", "group": "last-30-days", "lat": -6.180591563115129, "lon": 67.86189608503855, "alt_km": 399.00931626405054, "timestamp": "2025-12-20T16:47:35.021661+00:00", "meta": {"OBJECT_NAME": "STARLINK-35812", "OBJECT_ID": "2025-268T", "EPOCH": "2025-12-20T12:00:02.000160", "MEAN_MOTION": 15.56172097, "ECCENTRICITY": 0.000193, "INCLINATION": 43, "RA_OF_ASC_NODE": 75.7137, "ARG_OF_PERICENTER": 261.3445, "MEAN_ANOMALY": 49.5611, "EPHEMERIS_TYPE": 0, "CLASSIFICATION_TYPE": "U", "NORAD_CAT_ID": 66574, "ELEMENT_SET_NO": 999, "REV_AT_EPOCH": 591, "BSTAR": 0.0029342, "MEAN_MOTION_DOT": 0.00216456, "MEAN_MOTION_DDOT": 0}, "tle": {"line1": "1 66574U 25268T   25354.50002315  .00216456  00000+0  29342-2 0  9991", "line2": "2 66574  43.0000  75.7137 0001930 261.3445  49.5611 15.56172097  5919"}}, "geometry": {"type": "Point", "coordinates": [67.86189608503855, -6.180591563115129]}}, {"type": "Feature", "properties": {"norad_id": 66575, "name": "STARLINK-35810", "group": "last-30-days", "lat": -4.879881849885109, "lon": 69.27319943525232, "alt_km": 398.9056499744747, "timestamp": "2025-12-20T16:47:35.021672+00:00", "meta": {"OBJECT_NAME": "STARLINK-35810", "OBJECT_ID": "2025-268U", "EPOCH": "2025-12-20T12:00:02.000160", "MEAN_MOTION": 15.56168586, "ECCENTRICITY": 0.000196, "INCLINATION": 43, "RA_OF_ASC_NODE": 75.7083, "ARG_OF_PERICENTER": 261.2632, "MEAN_ANOMALY": 51.5626, "EPHEMERIS_TYPE": 0, "CLASSIFICATION_TYPE": "U", "NORAD_CAT_ID": 66575, "ELEMENT_SET_NO": 999, "REV_AT_EPOCH": 591, "BSTAR": 0.002988, "MEAN_MOTION_DOT": 0.00220517, "MEAN_MOTION_DDOT": 0}, "tle": {"line1": "1 66575U 25268U   25354.50002315  .00220517  00000+0  29880-2 0  9992", "line2": "2 66575  43.0000  75.7083 0001960 261.2632  51.5626 15.56168586  5917"}}, "geometry": {"type": "Point", "coordinates": [69.27319943525232, -4.879881849885109]}}, {"type": "Feature", "properties": {"norad_id": 66576, "name": "STARLINK-35814", "group": "last-30-days", "lat": -3.576254532175838, "lon": 70.67981299599134, "alt_km": 398.72787956221964, "timestamp": "2025-12-20T16:47:35.021682+00:00", "meta": {"OBJECT_NAME": "STARLINK-35814", "OBJECT_ID": "2025-268V", "EPOCH": "2025-12-20T12:00:02.000160", "MEAN_MOTION": 15.56177024, "ECCENTRICITY": 0.0001897, "INCLINATION": 43.0004, "RA_OF_ASC_NODE": 75.7037, "ARG_OF_PERICENTER": 262.7822, "MEAN_ANOMALY": 51.9563, "EPHEMERIS_TYPE": 0, "CLASSIFICATION_TYPE": "U", "NORAD_CAT_ID": 66576, "ELEMENT_SET_NO": 999, "REV_AT_EPOCH": 591, "BSTAR": 0.0030281, "MEAN_MOTION_DOT": 0.00223642, "MEAN_MOTION_DDOT": 0}, "tle": {"line1": "1 66576U 25268V   25354.50002315  .00223642  00000+0  30281-2 0  9992", "line2": "2 66576  43.0004  75.7037 0001897 262.7822  51.9563 15.56177024  5918"}}, "geometry": {"type": "Point", "coordinates": [70.67981299599134, -3.576254532175838]}}, {"type": "Feature", "properties": {"norad_id": 66577, "name": "STARLINK-35815", "group": "last-30-days", "lat": -9.717019575524414, "lon": 63.95972530037718, "alt_km": 408.52618571641233, "timestamp": "2025-12-20T16:47:35.021696+00:00", "meta": {"OBJECT_NAME": "STARLINK-35815", "OBJECT_ID": "2025-268W", "EPOCH": "2025-12-20T12:13:06.893184", "MEAN_MOTION": 15.51230363, "ECCENTRICITY": 0.0023776, "INCLINATION": 43.0031, "RA_OF_ASC_NODE": 75.6638, "ARG_OF_PERICENTER": 54.8873, "MEAN_ANOMALY": 305.4212, "EPHEMERIS_TYPE": 0, "CLASSIFICATION_TYPE": "U", "NORAD_CAT_ID": 66577, "ELEMENT_SET_NO": 999, "REV_AT_EPOCH": 583, "BSTAR": 0.0015436, "MEAN_MOTION_DOT": 0.00094527, "MEAN_MOTION_DDOT": 0}, "tle": {"line1": "1 66577U 25268W   25354.50910756  .00094527  00000+0  15436-2 0  9993", "line2": "2 66577  43.0031  75.6638 0023776  54.8873 305.4212 15.51230363  5831"}}, "geometry": {"type": "Point", "coordinates": [63.95972530037718, -9.717019575524414]}}, {"type": "Feature", "properties": {"norad_id": 66578, "name": "STARLINK-35743", "group": "last-30-days", "lat": -8.937813981040236, "lon": 64.82662924471899, "alt_km": 414.14538704290226, "timestamp": "2025-12-20T16:47:35.021707+00:00", "meta": {"OBJECT_NAME": "STARLINK-35743", "OBJECT_ID": "2025-268X", "EPOCH": "2025-12-19T13:01:43.293216", "MEAN_MOTION": 15.50763067, "ECCENTRICITY": 6.51e-05, "INCLINATION": 42.9979, "RA_OF_ASC_NODE": 81.316, "ARG_OF_PERICENTER": 284.5171, "MEAN_ANOMALY": 75.5617, "EPHEMERIS_TYPE": 0, "CLASSIFICATION_TYPE": "U", "NORAD_CAT_ID": 66578, "ELEMENT_SET_NO": 999, "REV_AT_EPOCH": 568, "BSTAR": 0.0024134, "MEAN_MOTION_DOT": 0.0014484, "MEAN_MOTION_DDOT": 0}, "tle": {"line1": "1 66578U 25268X   25353.54286219  .00144840  00000+0  24134-2 0  9996", "line2": "2 66578  42.9979  81.3160 0000651 284.5171  75.5617 15.50763067  5683"}}, "geometry": {"type": "Point", "coordinates": [64.82662924471899, -8.937813981040236]}}, {"type": "Feature", "properties": {"norad_id": 66579, "name": "STARLINK-35868", "group": "last-30-days", "lat": 0.3410927670421295, "lon": 74.87688532887874, "alt_km": 398.3926330136592, "timestamp": "2025-12-20T16:47:35.021718+00:00", "meta": {"OBJECT_NAME": "STARLINK-35868", "OBJECT_ID": "2025-268Y", "EPOCH": "2025-12-20T12:00:02.000160", "MEAN_MOTION": 15.56183047, "ECCENTRICITY": 0.0001966, "INCLINATION": 42.9992, "RA_OF_ASC_NODE": 75.6891, "ARG_OF_PERICENTER": 260.8223, "MEAN_ANOMALY": 59.6614, "EPHEMERIS_TYPE": 0, "CLASSIFICATION_TYPE": "U", "NORAD_CAT_ID": 66579, "ELEMENT_SET_NO": 999, "REV_AT_EPOCH": 591, "BSTAR": 0.002986, "MEAN_MOTION_DOT": 0.00220483, "MEAN_MOTION_DDOT": 0}, "tle": {"line1": "1 66579U 25268Y   25354.50002315  .00220483  00000+0  29860-2 0  9996", "line2": "2 66579  42.9992  75.6891 0001966 260.8223  59.6614 15.56183047  5917"}}, "geometry": {"type": "Point", "coordinates": [74.87688532887874, 0.3410927670421295]}}, {"type": "Feature", "properties": {"norad_id": 66580, "name": "STARLINK-35872", "group": "last-30-days", "lat": -5.960991370761644, "lon": 68.09766049949822, "alt_km": 415.2977834467338, "timestamp": "2025-12-20T16:47:35.021731+00:00", "meta": {"OBJECT_NAME": "STARLINK-35872", "OBJECT_ID": "2025-268Z", "EPOCH": "2025-12-19T14:33:26.953344", "MEAN_MOTION": 15.50873267, "ECCENTRICITY": 0.0002511, "INCLINATION": 42.9993, "RA_OF_ASC_NODE": 80.9317, "ARG_OF_PERICENTER": 162.1716, "MEAN_ANOMALY": 197.9233, "EPHEMERIS_TYPE": 0, "CLASSIFICATION_TYPE": "U", "NORAD_CAT_ID": 66580, "ELEMENT_SET_NO": 999, "REV_AT_EPOCH": 569, "BSTAR": 0.0027444, "MEAN_MOTION_DOT": 0.00165853, "MEAN_MOTION_DDOT": 0}, "tle": {"line1": "1 66580U 25268Z   25353.60656196  .00165853  00000+0  27444-2 0  9995", "line2": "2 66580  42.9993  80.9317 0002511 162.1716 197.9233 15.50873267  5692"}}, "geometry": {"type": "Point", "coordinates": [68.09766049949822, -5.960991370761644]}}, {"type": "Feature", "properties": {"norad_id": 66581, "name": "STARLINK-35744", "group": "last-30-days", "lat": -4.5763956823832235, "lon": 69.59974140410215, "alt_km": 404.5130136105663, "timestamp": "2025-12-20T16:47:35.021741+00:00", "meta": {"OBJECT_NAME": "STARLINK-35744", "OBJECT_ID": "2025-268AA", "EPOCH": "2025-12-20T12:11:08.741184", "MEAN_MOTION": 15.51171688, "ECCENTRICITY": 0.0019418, "INCLINATION": 43.0014, "RA_OF_ASC_NODE": 75.6513, "ARG_OF_PERICENTER": 38.7334, "MEAN_ANOMALY": 321.4915, "EPHEMERIS_TYPE": 0, "CLASSIFICATION_TYPE": "U", "NORAD_CAT_ID": 66581, "ELEMENT_SET_NO": 999, "REV_AT_EPOCH": 583, "BSTAR": 0.0011801, "MEAN_MOTION_DOT": 0.00071548, "MEAN_MOTION_DDOT": 0}, "tle": {"line1": "1 66581U 25268AA  25354.50774006  .00071548  00000+0  11801-2 0  9994", "line2": "2 66581  43.0014  75.6513 0019418  38.7334 321.4915 15.51171688  5832"}}, "geometry": {"type": "Point", "coordinates": [69.59974140410215, -4.5763956823832235]}}, {"type": "Feature", "properties": {"norad_id": 66582, "name": "STARLINK-35746", "group": "last-30-days", "lat": -3.2604871217101046, "lon": 71.01753446052658, "alt_km": 404.02373200220063, "timestamp": "2025-12-20T16:47:35.021752+00:00", "meta": {"OBJECT_NAME": "STARLINK-35746", "OBJECT_ID": "2025-268AB", "EPOCH": "2025-12-20T12:10:39.225216", "MEAN_MOTION": 15.51195543, "ECCENTRICITY": 0.0019685, "INCLINATION": 43.0006, "RA_OF_ASC_NODE": 75.6486, "ARG_OF_PERICENTER": 40.0324, "MEAN_ANOMALY": 320.1984, "EPHEMERIS_TYPE": 0, "CLASSIFICATION_TYPE": "U", "NORAD_CAT_ID": 66582, "ELEMENT_SET_NO": 999, "REV_AT_EPOCH": 583, "BSTAR": 0.0016006, "MEAN_MOTION_DOT": 0.00097588, "MEAN_MOTION_DDOT": 0}, "tle": {"line1": "1 66582U 25268AB  25354.50739844  .00097588  00000+0  16006-2 0  9990", "line2": "2 66582  43.0006  75.6486 0019685  40.0324 320.1984 15.51195543  5832"}}, "geometry": {"type": "Point", "coordinates": [71.01753446052658, -3.2604871217101046]}}]}